CCSDS_OMM_VERS = 2.0
CREATION_DATE  = 
ORIGINATOR     = 

OBJECT_NAME    = STARLINK-35272
OBJECT_ID      = 2025-224T
CENTER_NAME    = EARTH
REF_FRAME      = TEME
TIME_SYSTEM    = UTC
MEAN_ELEMENT_THEORY = SGP/SGP4

EPOCH          = 2025-10-26T12:00:00.998784
MEAN_MOTION    = 15.65128621
ECCENTRICITY   = .0000883
INCLINATION    = 53.1586
RA_OF_ASC_NODE = 277.2611
ARG_OF_PERICENTER = 79.9063
MEAN_ANOMALY   = 234.4999

EPHEMERIS_TYPE = 0
CLASSIFICATION_TYPE = U
NORAD_CAT_ID   = 65899
ELEMENT_SET_NO = 999
REV_AT_EPOCH   = 430
BSTAR          = -.22927E-1
MEAN_MOTION_DOT = -.2025083E-1
MEAN_MOTION_DDOT = 0

CCSDS_OMM_VERS = 2.0
CREATION_DATE  = 
ORIGINATOR     = 

OBJECT_NAME    = STARLINK-35264
OBJECT_ID      = 2025-224U
CENTER_NAME    = EARTH
REF_FRAME      = TEME
TIME_SYSTEM    = UTC
MEAN_ELEMENT_THEORY = SGP/SGP4

EPOCH          = 2025-10-26T12:00:00.998784
MEAN_MOTION    = 15.65130693
ECCENTRICITY   = .0001066
INCLINATION    = 53.1592
RA_OF_ASC_NODE = 277.2573
ARG_OF_PERICENTER = 94.7922
MEAN_ANOMALY   = 221.5287

EPHEMERIS_TYPE = 0
CLASSIFICATION_TYPE = U
NORAD_CAT_ID   = 65900
ELEMENT_SET_NO = 999
REV_AT_EPOCH   = 430
BSTAR          = -.22974E-1
MEAN_MOTION_DOT = -.202905E-1
MEAN_MOTION_DDOT = 0

CCSDS_OMM_VERS = 2.0
CREATION_DATE  = 
ORIGINATOR     = 

OBJECT_NAME    = STARLINK-35249
OBJECT_ID      = 2025-224V
CENTER_NAME    = EARTH
REF_FRAME      = TEME
TIME_SYSTEM    = UTC
MEAN_ELEMENT_THEORY = SGP/SGP4

EPOCH          = 2025-10-26T12:00:00.998784
MEAN_MOTION    = 15.65125704
ECCENTRICITY   = .0001004
INCLINATION    = 53.1593
RA_OF_ASC_NODE = 277.2533
ARG_OF_PERICENTER = 85.2375
MEAN_ANOMALY   = 233.0048

EPHEMERIS_TYPE = 0
CLASSIFICATION_TYPE = U
NORAD_CAT_ID   = 65901
ELEMENT_SET_NO = 999
REV_AT_EPOCH   = 429
BSTAR          = -.22918E-1
MEAN_MOTION_DOT = -.202432E-1
MEAN_MOTION_DDOT = 0

CCSDS_OMM_VERS = 2.0
CREATION_DATE  = 
ORIGINATOR     = 

OBJECT_NAME    = STARLINK-35278
OBJECT_ID      = 2025-224W
CENTER_NAME    = EARTH
REF_FRAME      = TEME
TIME_SYSTEM    = UTC
MEAN_ELEMENT_THEORY = SGP/SGP4

EPOCH          = 2025-10-26T12:00:00.998784
MEAN_MOTION    = 15.65128560
ECCENTRICITY   = .0000952
INCLINATION    = 53.1592
RA_OF_ASC_NODE = 277.2411
ARG_OF_PERICENTER = 84.4795
MEAN_ANOMALY   = 239.5118

EPHEMERIS_TYPE = 0
CLASSIFICATION_TYPE = U
NORAD_CAT_ID   = 65902
ELEMENT_SET_NO = 999
REV_AT_EPOCH   = 431
BSTAR          = -.22936E-1
MEAN_MOTION_DOT = -.2025875E-1
MEAN_MOTION_DDOT = 0

CCSDS_OMM_VERS = 2.0
CREATION_DATE  = 
ORIGINATOR     = 

OBJECT_NAME    = STARLINK-35210
OBJECT_ID      = 2025-224X
CENTER_NAME    = EARTH
REF_FRAME      = TEME
TIME_SYSTEM    = UTC
MEAN_ELEMENT_THEORY = SGP/SGP4

EPOCH          = 2025-10-26T12:00:00.998784
MEAN_MOTION    = 15.65128040
ECCENTRICITY   = .0000954
INCLINATION    = 53.1590
RA_OF_ASC_NODE = 277.2453
ARG_OF_PERICENTER = 81.7114
MEAN_ANOMALY   = 240.3648

EPHEMERIS_TYPE = 0
CLASSIFICATION_TYPE = U
NORAD_CAT_ID   = 65903
ELEMENT_SET_NO = 999
REV_AT_EPOCH   = 429
BSTAR          = -.2295E-1
MEAN_MOTION_DOT = -.2026882E-1
MEAN_MOTION_DDOT = 0

CCSDS_OMM_VERS = 2.0
CREATION_DATE  = 
ORIGINATOR     = 

OBJECT_NAME    = STARLINK-35348
OBJECT_ID      = 2025-224Y
CENTER_NAME    = EARTH
REF_FRAME      = TEME
TIME_SYSTEM    = UTC
MEAN_ELEMENT_THEORY = SGP/SGP4

EPOCH          = 2025-10-26T12:00:00.998784
MEAN_MOTION    = 15.65129191
ECCENTRICITY   = .0001019
INCLINATION    = 53.1591
RA_OF_ASC_NODE = 277.2495
ARG_OF_PERICENTER = 88.7992
MEAN_ANOMALY   = 231.3556

EPHEMERIS_TYPE = 0
CLASSIFICATION_TYPE = U
NORAD_CAT_ID   = 65904
ELEMENT_SET_NO = 999
REV_AT_EPOCH   = 426
BSTAR          = -.2294E-1
MEAN_MOTION_DOT = -.2026223E-1
MEAN_MOTION_DDOT = 0

CCSDS_OMM_VERS = 2.0
CREATION_DATE  = 
ORIGINATOR     = 

OBJECT_NAME    = STARLINK-35380
OBJECT_ID      = 2025-224Z
CENTER_NAME    = EARTH
REF_FRAME      = TEME
TIME_SYSTEM    = UTC
MEAN_ELEMENT_THEORY = SGP/SGP4

EPOCH          = 2025-10-26T12:00:00.998784
MEAN_MOTION    = 15.65127758
ECCENTRICITY   = .0000945
INCLINATION    = 53.1588
RA_OF_ASC_NODE = 277.2383
ARG_OF_PERICENTER = 80.8652
MEAN_ANOMALY   = 245.0455

EPHEMERIS_TYPE = 0
CLASSIFICATION_TYPE = U
NORAD_CAT_ID   = 65905
ELEMENT_SET_NO = 999
REV_AT_EPOCH   = 426
BSTAR          = -.22954E-1
MEAN_MOTION_DOT = -.2027208E-1
MEAN_MOTION_DDOT = 0

CCSDS_OMM_VERS = 2.0
CREATION_DATE  = 
ORIGINATOR     = 

OBJECT_NAME    = STARLINK-35385
OBJECT_ID      = 2025-224AA
CENTER_NAME    = EARTH
REF_FRAME      = TEME
TIME_SYSTEM    = UTC
MEAN_ELEMENT_THEORY = SGP/SGP4

EPOCH          = 2025-10-26T12:00:00.998784
MEAN_MOTION    = 15.65125369
ECCENTRICITY   = .0000976
INCLINATION    = 53.1594
RA_OF_ASC_NODE = 277.2299
ARG_OF_PERICENTER = 83.5284
MEAN_ANOMALY   = 246.2134

EPHEMERIS_TYPE = 0
CLASSIFICATION_TYPE = U
NORAD_CAT_ID   = 65906
ELEMENT_SET_NO = 999
REV_AT_EPOCH   = 429
BSTAR          = -.22869E-1
MEAN_MOTION_DOT = -.2020452E-1
MEAN_MOTION_DDOT = 0

CCSDS_OMM_VERS = 2.0
CREATION_DATE  = 
ORIGINATOR     = 

OBJECT_NAME    = STARLINK-35347
OBJECT_ID      = 2025-224AB
CENTER_NAME    = EARTH
REF_FRAME      = TEME
TIME_SYSTEM    = UTC
MEAN_ELEMENT_THEORY = SGP/SGP4

EPOCH          = 2025-10-26T12:00:00.998784
MEAN_MOTION    = 15.65127829
ECCENTRICITY   = .0000983
INCLINATION    = 53.1594
RA_OF_ASC_NODE = 277.2252
ARG_OF_PERICENTER = 80.8073
MEAN_ANOMALY   = 250.8496

EPHEMERIS_TYPE = 0
CLASSIFICATION_TYPE = U
NORAD_CAT_ID   = 65907
ELEMENT_SET_NO = 999
REV_AT_EPOCH   = 429
BSTAR          = -.229E-1
MEAN_MOTION_DOT = -.2023055E-1
MEAN_MOTION_DDOT = 0

CCSDS_OMM_VERS = 2.0
CREATION_DATE  = 
ORIGINATOR     = 

OBJECT_NAME    = STARLINK-35329
OBJECT_ID      = 2025-224AC
CENTER_NAME    = EARTH
REF_FRAME      = TEME
TIME_SYSTEM    = UTC
MEAN_ELEMENT_THEORY = SGP/SGP4

EPOCH          = 2025-10-26T12:00:00.998784
MEAN_MOTION    = 15.65125863
ECCENTRICITY   = .0001006
INCLINATION    = 53.1590
RA_OF_ASC_NODE = 277.2333
ARG_OF_PERICENTER = 95.0871
MEAN_ANOMALY   = 232.7380

EPHEMERIS_TYPE = 0
CLASSIFICATION_TYPE = U
NORAD_CAT_ID   = 65908
ELEMENT_SET_NO = 999
REV_AT_EPOCH   = 430
BSTAR          = -.22907E-1
MEAN_MOTION_DOT = -.2023493E-1
MEAN_MOTION_DDOT = 0

CCSDS_OMM_VERS = 2.0
CREATION_DATE  = 
ORIGINATOR     = 

OBJECT_NAME    = STARLINK-35387
OBJECT_ID      = 2025-224AD
CENTER_NAME    = EARTH
REF_FRAME      = TEME
TIME_SYSTEM    = UTC
MEAN_ELEMENT_THEORY = SGP/SGP4

EPOCH          = 2025-10-26T12:00:00.998784
MEAN_MOTION    = 15.65125482
ECCENTRICITY   = .0000971
INCLINATION    = 53.1593
RA_OF_ASC_NODE = 277.2210
ARG_OF_PERICENTER = 82.9168
MEAN_ANOMALY   = 250.6591

EPHEMERIS_TYPE = 0
CLASSIFICATION_TYPE = U
NORAD_CAT_ID   = 65909
ELEMENT_SET_NO = 999
REV_AT_EPOCH   = 426
BSTAR          = -.22877E-1
MEAN_MOTION_DOT = -.2021058E-1
MEAN_MOTION_DDOT = 0

CCSDS_OMM_VERS = 2.0
CREATION_DATE  = 
ORIGINATOR     = 

OBJECT_NAME    = STARLINK-35523
OBJECT_ID      = 2025-225A
CENTER_NAME    = EARTH
REF_FRAME      = TEME
TIME_SYSTEM    = UTC
MEAN_ELEMENT_THEORY = SGP/SGP4

EPOCH          = 2025-10-26T11:21:27.967104
MEAN_MOTION    = 15.74219376
ECCENTRICITY   = .0001045
INCLINATION    = 53.1602
RA_OF_ASC_NODE = 73.0521
ARG_OF_PERICENTER = 77.5895
MEAN_ANOMALY   = 282.5242

EPHEMERIS_TYPE = 0
CLASSIFICATION_TYPE = U
NORAD_CAT_ID   = 65910
ELEMENT_SET_NO = 999
REV_AT_EPOCH   = 380
BSTAR          = .10596E-2
MEAN_MOTION_DOT = .157688E-2
MEAN_MOTION_DDOT = 0

