STARLINK-35272          
1 65899U 25224T   25299.50001156 -.02025083  00000+0 -22927-1 0  9991
2 65899  53.1586 277.2611 0000883  79.9063 234.4999 15.65128621  4300
STARLINK-35264          
1 65900U 25224U   25299.50001156 -.02029050  00000+0 -22974-1 0  9994
2 65900  53.1592 277.2573 0001066  94.7922 221.5287 15.65130693  4309
STARLINK-35249          
1 65901U 25224V   25299.50001156 -.02024320  00000+0 -22918-1 0  9998
2 65901  53.1593 277.2533 0001004  85.2375 233.0048 15.65125704  4294
STARLINK-35278          
1 65902U 25224W   25299.50001156 -.02025875  00000+0 -22936-1 0  9995
2 65902  53.1592 277.2411 0000952  84.4795 239.5118 15.65128560  4312
STARLINK-35210          
1 65903U 25224X   25299.50001156 -.02026882  00000+0 -22950-1 0  9991
2 65903  53.1590 277.2453 0000954  81.7114 240.3648 15.65128040  4292
STARLINK-35348          
1 65904U 25224Y   25299.50001156 -.02026223  00000+0 -22940-1 0  9990
2 65904  53.1591 277.2495 0001019  88.7992 231.3556 15.65129191  4267
STARLINK-35380          
1 65905U 25224Z   25299.50001156 -.02027208  00000+0 -22954-1 0  9990
2 65905  53.1588 277.2383 0000945  80.8652 245.0455 15.65127758  4260
STARLINK-35385          
1 65906U 25224AA  25299.50001156 -.02020452  00000+0 -22869-1 0  9990
2 65906  53.1594 277.2299 0000976  83.5284 246.2134 15.65125369  4295
STARLINK-35347          
1 65907U 25224AB  25299.50001156 -.02023055  00000+0 -22900-1 0  9999
2 65907  53.1594 277.2252 0000983  80.8073 250.8496 15.65127829  4294
STARLINK-35329          
1 65908U 25224AC  25299.50001156 -.02023493  00000+0 -22907-1 0  9993
2 65908  53.1590 277.2333 0001006  95.0871 232.7380 15.65125863  4301
STARLINK-35387          
1 65909U 25224AD  25299.50001156 -.02021058  00000+0 -22877-1 0  9995
2 65909  53.1593 277.2210 0000971  82.9168 250.6591 15.65125482  4268
STARLINK-35523          
1 65910U 25225A   25299.47324036  .00157688  00000+0  10596-2 0  9990
2 65910  53.1602  73.0521 0001045  77.5895 282.5242 15.74219376  3800
